STARLINK-30986          
1 58492U 23186V   26177.98936657 -.00000784  00000+0 -18993-4 0  9998
2 58492  43.0006 166.2531 0001063 270.4964  89.5766 15.27576151142603
STARLINK-30985          
1 58493U 23186W   26177.98166117 -.00000097  00000+0  60014-5 0  9993
2 58493  43.0016 166.1951 0001593 278.4385  81.6286 15.27570983142600
STARLINK-30981          
1 58494U 23186X   26178.23934649  .00000457  00000+0  26124-4 0  9998
2 58494  43.0001 164.6871 0000998 259.7012 100.3727 15.27575220142648
STARLINK-31002          
1 58495U 23186Y   26177.69070778 -.00001096  00000+0 -30303-4 0  9998
2 58495  43.0038 168.3094 0001408 267.5858  92.4833 15.27568865142724
STARLINK-31026          
1 58508U 23191A   26177.39108671 -.00003360  00000+0 -11258-3 0  9993
2 58508  42.9996 216.5447 0001594 281.1522  78.9150 15.27593995142019
STARLINK-31020          
1 58509U 23191B   26177.51029867  .00001015  00000+0  46403-4 0  9991
2 58509  43.0031 215.7240 0001794 273.3598  86.7049 15.27582571142036
STARLINK-30989          
1 58510U 23191C   26177.78953474 -.00000446  00000+0 -67070-5 0  9995
2 58510  43.0012 207.5650 0001009 275.7973  84.2764 15.27573187142189
STARLINK-30968          
1 58511U 23191D   26177.79339053 -.00001514  00000+0 -45515-4 0  9994
2 58511  43.0012 207.5912 0000762 285.6962  74.3806 15.27576270142154
STARLINK-30982          
1 58512U 23191E   26177.79724677  .00001566  00000+0  66446-4 0  9996
2 58512  43.0019 207.6197 0000803 279.1361  80.9400 15.27566086142152
STARLINK-30998          
1 58513U 23191F   26177.79981415 -.00000404  00000+0 -51661-5 0  9998
2 58513  43.0020 207.6462 0001469 284.2088  75.8601 15.27574491142180
STARLINK-30983          
1 58514U 23191G   26177.77154154  .00000114  00000+0  13656-4 0  9996
2 58514  42.9987 207.4256 0001403 283.1482  76.9212 15.27577575141808
STARLINK-31017          
1 58515U 23191H   26177.71857553  .00009950  00000+0  37106-3 0  9996
2 58515  43.0016 335.4273 0000752 270.1424  89.9342 15.27539454144853
STARLINK-31028          
1 58516U 23191J   26177.80866827 -.00001659  00000+0 -50791-4 0  9997
2 58516  43.0051 206.8457 0001646 274.5565  85.5098 15.27567265142168
STARLINK-31011          
1 58517U 23191K   26177.80481182 -.00001205  00000+0 -34265-4 0  9990
2 58517  43.0003 206.8295 0000790 308.7250  51.3531 15.27577587142167
STARLINK-31021          
1 58518U 23191L   26177.78567179  .00000781  00000+0  37897-4 0  9999
2 58518  42.9969 207.5088 0001382 273.8210  86.2484 15.27574771142156
STARLINK-31010          
1 58519U 23191M   26177.38949249  .00000124  00000+0  14038-4 0  9991
2 58519  42.9966 209.6600 0001380 275.5434  84.5260 15.27576864142093
STARLINK-31003          
1 58520U 23191N   26177.54197750 -.00000338  00000+0 -27438-5 0  9991
2 58520  43.0032 208.2921 0001441 288.4727  71.5968 15.27573611142120
STARLINK-31015          
1 58521U 23191P   26177.80736389  .00014065  00000+0  51939-3 0  9999
2 58521  43.0059 206.8475 0004286 267.2693  92.7668 15.27591681142135
STARLINK-30932          
1 58523U 23191R   26177.35738446  .00000718  00000+0  35623-4 0  9990
2 58523  43.0000 209.4785 0003239 277.3491  82.6993 15.27579186142046
STARLINK-30992          
1 58524U 23191S   26177.36123263  .00000225  00000+0  17708-4 0  9994
2 58524  43.0018 209.5091 0001582 274.3334  85.7336 15.27578698142096
STARLINK-30948          
1 58525U 23191T   26177.36379028  .00002271  00000+0  91990-4 0  9995
2 58525  43.0009 209.5275 0001307 276.6325  83.4378 15.27590631142093
STARLINK-31013          
1 58526U 23191U   26177.86099317  .00017546  00000+0  10686-2 0  9993
2 58526  42.9978 226.8292 0007269  23.5266 336.5911 15.10098358141932
STARLINK-31001          
1 58527U 23191V   26177.77538657  .00006526  00000+0  24661-3 0  9994
2 58527  42.9994 207.3610 0000815 264.4109  95.6649 15.27557847142158
STARLINK-31004          
1 58528U 23191W   26177.36765758  .00000694  00000+0  34746-4 0  9990
2 58528  42.9988 209.5524 0001137 268.9416  91.1306 15.27583851142096
STARLINK-30988          
1 58529U 23191X   26177.37151256  .00000726  00000+0  35913-4 0  9997
2 58529  43.0014 209.5800 0001435 268.9540  91.1147 15.27579133142096
STARLINK-31009          
1 58530U 23191Y   26177.76770733 -.00003065  00000+0 -10191-3 0  9990
2 58530  42.9998 207.3909 0002095 279.2191  80.8424 15.27567913142178
STARLINK-31012          
1 58531U 23192A   26178.00494757 -.00000407  00000+0 -16054-5 0  9992
2 58531  53.1606 274.8698 0001151  86.2284 273.8848 15.30186809142724
STARLINK-31035          
1 58532U 23192B   26177.52135486  .00001092  00000+0  43469-4 0  9998
2 58532  53.1590 263.3170 0001066  96.0602 264.0522 15.34391210142845
STARLINK-31036          
1 58533U 23192C   26177.99633552 -.00001408  00000+0 -30558-4 0  9995
2 58533  53.1597 273.4315 0001249  92.9841 267.1304 15.34378236142743
STARLINK-30936          
1 58534U 23192D   26177.96363977  .00001673  00000+0  65639-4 0  9994
2 58534  53.1611 264.7031 0000442  81.9076 278.1975 15.31706961142867
