OBJECT_NAME,OBJECT_ID,EPOCH,MEAN_MOTION,ECCENTRICITY,INCLINATION,RA_OF_ASC_NODE,ARG_OF_PERICENTER,MEAN_ANOMALY,EPHEMERIS_TYPE,CLASSIFICATION_TYPE,NORAD_CAT_ID,ELEMENT_SET_NO,REV_AT_EPOCH,BSTAR,MEAN_MOTION_DOT,MEAN_MOTION_DDOT
STARLINK-30986,2023-186V,2026-06-26T23:44:41.271648,15.27576151,.0001063,43.0006,166.2531,270.4964,89.5766,0,U,58492,999,14260,-.18993E-4,-.784E-5,0
STARLINK-30985,2023-186W,2026-06-26T23:33:35.525088,15.27570983,.0001593,43.0016,166.1951,278.4385,81.6286,0,U,58493,999,14260,.60014E-5,-.97E-6,0
STARLINK-30981,2023-186X,2026-06-27T05:44:39.536736,15.27575220,.0000998,43.0001,164.6871,259.7012,100.3727,0,U,58494,999,14264,.26124E-4,.457E-5,0
STARLINK-31002,2023-186Y,2026-06-26T16:34:37.152192,15.27568865,.00014081,43.0038,168.3094,267.5858,92.4833,0,U,58495,999,14272,-.30303416E-4,-.1096E-4,0
STARLINK-31026,2023-191A,2026-06-26T09:23:09.891744,15.27593995,.0001594,42.9996,216.5447,281.1522,78.9150,0,U,58508,999,14201,-.11258E-3,-.336E-4,0
STARLINK-31020,2023-191B,2026-06-26T12:14:49.805088,15.27582571,.0001794,43.0031,215.7240,273.3598,86.7049,0,U,58509,999,14203,.46403E-4,.1015E-4,0
STARLINK-30989,2023-191C,2026-06-26T18:56:55.801536,15.27573187,.00010094,43.0012,207.5650,275.7973,84.2764,0,U,58510,999,14218,-.6706996E-5,-.446E-5,0
STARLINK-30968,2023-191D,2026-06-26T19:02:28.941792,15.27576270,.0000762,43.0012,207.5912,285.6962,74.3806,0,U,58511,999,14215,-.45515496E-4,-.1514E-4,0
STARLINK-30982,2023-191E,2026-06-26T19:08:02.120928,15.27566086,.00008032,43.0019,207.6197,279.1361,80.9400,0,U,58512,999,14215,.66445786E-4,.1566E-4,0
STARLINK-30998,2023-191F,2026-06-26T19:11:43.942560,15.27574491,.00014698,43.0020,207.6462,284.2088,75.8601,0,U,58513,999,14218,-.5166136E-5,-.404E-5,0
STARLINK-30983,2023-191G,2026-06-26T18:31:01.189056,15.27577575,.00014035,42.9987,207.4256,283.1482,76.9212,0,U,58514,999,14180,.13655591E-4,.114E-5,0
STARLINK-31017,2023-191H,2026-06-26T17:14:44.925792,15.27539454,.00007527,43.0016,335.4273,270.1424,89.9342,0,U,58515,999,14485,.37105756E-3,.995E-4,0
STARLINK-31028,2023-191J,2026-06-26T19:24:28.938528,15.27567265,.00016464,43.0051,206.8457,274.5565,85.5098,0,U,58516,999,14216,-.50791248E-4,-.1659E-4,0
STARLINK-31011,2023-191K,2026-06-26T19:18:55.741248,15.27577587,.00007902,43.0003,206.8295,308.7250,51.3531,0,U,58517,999,14216,-.34264812E-4,-.1205E-4,0
STARLINK-31021,2023-191L,2026-06-26T18:51:22.042656,15.27574771,.00013821,42.9969,207.5088,273.8210,86.2484,0,U,58518,999,14215,.37897431E-4,.781E-5,0
STARLINK-31010,2023-191M,2026-06-26T09:20:52.151136,15.27576864,.000138,42.9966,209.6600,275.5434,84.5260,0,U,58519,999,14209,.14038E-4,.124E-5,0
STARLINK-31003,2023-191N,2026-06-26T13:00:26.856000,15.27573611,.0001441,43.0032,208.2921,288.4727,71.5968,0,U,58520,999,14212,-.27438E-5,-.338E-5,0
STARLINK-31015,2023-191P,2026-06-26T19:22:36.240096,15.27591681,.00042866,43.0059,206.8475,267.2693,92.7668,0,U,58521,999,14213,.51938741E-3,.14065E-3,0
STARLINK-30932,2023-191R,2026-06-26T08:34:38.017344,15.27579186,.0003239,43.0000,209.4785,277.3491,82.6993,0,U,58523,999,14204,.35623E-4,.718E-5,0
STARLINK-30992,2023-191S,2026-06-26T08:40:10.499232,15.27578698,.0001582,43.0018,209.5091,274.3334,85.7336,0,U,58524,999,14209,.17708E-4,.225E-5,0
STARLINK-30948,2023-191T,2026-06-26T08:43:51.480192,15.27590631,.0001307,43.0009,209.5275,276.6325,83.4378,0,U,58525,999,14209,.9199E-4,.2271E-4,0
STARLINK-31013,2023-191U,2026-06-26T20:39:49.809888,15.10098358,.0007269,42.9978,226.8292,23.5266,336.5911,0,U,58526,999,14193,.10686E-2,.17546E-3,0
STARLINK-31001,2023-191V,2026-06-26T18:36:33.399648,15.27557847,.00008158,42.9994,207.3610,264.4109,95.6649,0,U,58527,999,14215,.24660567E-3,.6526E-4,0
STARLINK-31004,2023-191W,2026-06-26T08:49:25.614912,15.27583851,.0001137,42.9988,209.5524,268.9416,91.1306,0,U,58528,999,14209,.34746E-4,.694E-5,0
STARLINK-30988,2023-191X,2026-06-26T08:54:58.685184,15.27579133,.0001435,43.0014,209.5800,268.9540,91.1147,0,U,58529,999,14209,.35913E-4,.726E-5,0
STARLINK-31009,2023-191Y,2026-06-26T18:25:29.913312,15.27567913,.00020957,42.9998,207.3909,279.2191,80.8424,0,U,58530,999,14217,-.1019081E-3,-.3065E-4,0
STARLINK-31012,2023-192A,2026-06-27T00:07:07.470048,15.30186809,.0001151,53.1606,274.8698,86.2284,273.8848,0,U,58531,999,14272,-.16054E-5,-.407E-5,0
STARLINK-31035,2023-192B,2026-06-26T12:30:45.059904,15.34391210,.0001066,53.1590,263.3170,96.0602,264.0522,0,U,58532,999,14284,.43469E-4,.1092E-4,0
STARLINK-31036,2023-192C,2026-06-26T23:54:43.388928,15.34378236,.0001249,53.1597,273.4315,92.9841,267.1304,0,U,58533,999,14274,-.30558E-4,-.1408E-4,0
STARLINK-30936,2023-192D,2026-06-26T23:07:38.476128,15.31706961,.0000442,53.1611,264.7031,81.9076,278.1975,0,U,58534,999,14286,.65639E-4,.1673E-4,0
